[{"OBJECT_NAME":"ONEWEB-0012","OBJECT_ID":"2019-010A","EPOCH":"2026-05-14T06:46:51.244320","MEAN_MOTION":13.165958,"ECCENTRICITY":0.0002386,"INCLINATION":87.9106,"RA_OF_ASC_NODE":235.5168,"ARG_OF_PERICENTER":97.8132,"MEAN_ANOMALY":262.327,"EPHEMERIS_TYPE":0,"CLASSIFICATION_TYPE":"U","NORAD_CAT_ID":44057,"ELEMENT_SET_NO":999,"REV_AT_EPOCH":34710,"BSTAR":0.00022568,"MEAN_MOTION_DOT":9.9e-07,"MEAN_MOTION_DDOT":0.0},{"OBJECT_NAME":"ONEWEB-0010","OBJECT_ID":"2019-010B","EPOCH":"2026-05-14T07:23:19.574880","MEAN_MOTION":13.16595384,"ECCENTRICITY":0.0001655,"INCLINATION":87.9102,"RA_OF_ASC_NODE":235.5073,"ARG_OF_PERICENTER":94.2502,"MEAN_ANOMALY":265.8818,"EPHEMERIS_TYPE":0,"CLASSIFICATION_TYPE":"U","NORAD_CAT_ID":44058,"ELEMENT_SET_NO":999,"REV_AT_EPOCH":34715,"BSTAR":-8.0049e-05,"MEAN_MOTION_DOT":-1.8e-07,"MEAN_MOTION_DDOT":0.0},{"OBJECT_NAME":"ONEWEB-0008","OBJECT_ID":"2019-010C","EPOCH":"2026-05-14T06:10:22.899936","MEAN_MOTION":13.16593363,"ECCENTRICITY":0.000199,"INCLINATION":87.91,"RA_OF_ASC_NODE":235.5135,"ARG_OF_PERICENTER":109.2281,"MEAN_ANOMALY":250.9066,"EPHEMERIS_TYPE":0,"CLASSIFICATION_TYPE":"U","NORAD_CAT_ID":44059,"ELEMENT_SET_NO":999,"REV_AT_EPOCH":34726,"BSTAR":-2.471e-05,"MEAN_MOTION_DOT":3e-08,"MEAN_MOTION_DDOT":0.0},{"OBJECT_NAME":"ONEWEB-0007","OBJECT_ID":"2019-010D","EPOCH":"2026-05-13T10:17:22.106112","MEAN_MOTION":13.15549872,"ECCENTRICITY":0.0001933,"INCLINATION":87.8976,"RA_OF_ASC_NODE":266.1501,"ARG_OF_PERICENTER":89.5474,"MEAN_ANOMALY":270.5878,"EPHEMERIS_TYPE":0,"CLASSIFICATION_TYPE":"U","NORAD_CAT_ID":44060,"ELEMENT_SET_NO":999,"REV_AT_EPOCH":34680,"BSTAR":0.00030444,"MEAN_MOTION_DOT":1.27e-06,"MEAN_MOTION_DDOT":0.0},{"OBJECT_NAME":"ONEWEB-0006","OBJECT_ID":"2019-010E","EPOCH":"2026-05-14T06:27:49.347360","MEAN_MOTION":13.15550074,"ECCENTRICITY":0.0001755,"INCLINATION":87.8987,"RA_OF_ASC_NODE":265.943,"ARG_OF_PERICENTER":94.4919,"MEAN_ANOMALY":265.6412,"EPHEMERIS_TYPE":0,"CLASSIFICATION_TYPE":"U","NORAD_CAT_ID":44061,"ELEMENT_SET_NO":999,"REV_AT_EPOCH":34696,"BSTAR":0.00035285,"MEAN_MOTION_DOT":1.46e-06,"MEAN_MOTION_DDOT":0.0},{"OBJECT_NAME":"ONEWEB-0011","OBJECT_ID":"2019-010F","EPOCH":"2026-05-14T07:31:43.240224","MEAN_MOTION":13.15548502,"ECCENTRICITY":0.0001701,"INCLINATION":87.8987,"RA_OF_ASC_NODE":265.943,"ARG_OF_PERICENTER":101.7214,"MEAN_ANOMALY":258.4107,"EPHEMERIS_TYPE":0,"CLASSIFICATION_TYPE":"U","NORAD_CAT_ID":44062,"ELEMENT_SET_NO":999,"REV_AT_EPOCH":34696,"BSTAR":-0.00036673,"MEAN_MOTION_DOT":-1.25e-06,"MEAN_MOTION_DDOT":0.0},{"OBJECT_NAME":"ONEWEB-0013","OBJECT_ID":"2020-008A","EPOCH":"2026-05-14T05:50:48.527808","MEAN_MOTION":13.09452707,"ECCENTRICITY":0.0002939,"INCLINATION":87.8527,"RA_OF_ASC_NODE":59.6689,"ARG_OF_PERICENTER":84.4211,"MEAN_ANOMALY":275.7251,"EPHEMERIS_TYPE":0,"CLASSIFICATION_TYPE":"U","NORAD_CAT_ID":45131,"ELEMENT_SET_NO":999,"REV_AT_EPOCH":30162,"BSTAR":0.0022364999999999998,"MEAN_MOTION_DOT":7.83e-06,"MEAN_MOTION_DDOT":0.0},{"OBJECT_NAME":"ONEWEB-0017","OBJECT_ID":"2020-008B","EPOCH":"2026-05-14T05:59:34.418688","MEAN_MOTION":13.10375954,"ECCENTRICITY":0.0001687,"INCLINATION":87.8856,"RA_OF_ASC_NODE":43.0234,"ARG_OF_PERICENTER":73.0918,"MEAN_ANOMALY":287.0395,"EPHEMERIS_TYPE":0,"CLASSIFICATION_TYPE":"U","NORAD_CAT_ID":45132,"ELEMENT_SET_NO":999,"REV_AT_EPOCH":30350,"BSTAR":-0.00035380000000000003,"MEAN_MOTION_DOT":-1.11e-06,"MEAN_MOTION_DDOT":0.0},{"OBJECT_NAME":"ONEWEB-0020","OBJECT_ID":"2020-008C","EPOCH":"2026-05-14T05:16:32.462688","MEAN_MOTION":13.10369665,"ECCENTRICITY":0.000189,"INCLINATION":87.8861,"RA_OF_ASC_NODE":43.0258,"ARG_OF_PERICENTER":78.5649,"MEAN_ANOMALY":281.569,"EPHEMERIS_TYPE":0,"CLASSIFICATION_TYPE":"U","NORAD_CAT_ID":45133,"ELEMENT_SET_NO":999,"REV_AT_EPOCH":30389,"BSTAR":-0.0005849,"MEAN_MOTION_DOT":-1.92e-06,"MEAN_MOTION_DDOT":0.0},{"OBJECT_NAME":"ONEWEB-0021","OBJECT_ID":"2020-008D","EPOCH":"2026-05-14T05:38:02.884704","MEAN_MOTION":13.10373301,"ECCENTRICITY":0.0001949,"INCLINATION":87.8856,"RA_OF_ASC_NODE":43.0408,"ARG_OF_PERICENTER":76.7014,"MEAN_ANOMALY":283.4331,"EPHEMERIS_TYPE":0,"CLASSIFICATION_TYPE":"U","NORAD_CAT_ID":45134,"ELEMENT_SET_NO":999,"REV_AT_EPOCH":30420,"BSTAR":-0.0017785000000000001,"MEAN_MOTION_DOT":-6.08e-06,"MEAN_MOTION_DDOT":0.0},{"OBJECT_NAME":"ONEWEB-0023","OBJECT_ID":"2020-008F","EPOCH":"2026-05-14T05:53:35.619360","MEAN_MOTION":13.10375428,"ECCENTRICITY":0.0001939,"INCLINATION":87.8862,"RA_OF_ASC_NODE":43.0191,"ARG_OF_PERICENTER":81.5379,"MEAN_ANOMALY":278.5968,"EPHEMERIS_TYPE":0,"CLASSIFICATION_TYPE":"U","NORAD_CAT_ID":45136,"ELEMENT_SET_NO":999,"REV_AT_EPOCH":30363,"BSTAR":-0.0011028000000000001,"MEAN_MOTION_DOT":-3.72e-06,"MEAN_MOTION_DDOT":0.0},{"OBJECT_NAME":"ONEWEB-0024","OBJECT_ID":"2020-008G","EPOCH":"2026-05-14T07:04:19.204608","MEAN_MOTION":13.10374307,"ECCENTRICITY":0.0001879,"INCLINATION":87.886,"RA_OF_ASC_NODE":43.0003,"ARG_OF_PERICENTER":78.5524,"MEAN_ANOMALY":281.5815,"EPHEMERIS_TYPE":0,"CLASSIFICATION_TYPE":"U","NORAD_CAT_ID":45137,"ELEMENT_SET_NO":999,"REV_AT_EPOCH":30380,"BSTAR":-0.00039986,"MEAN_MOTION_DOT":-1.27e-06,"MEAN_MOTION_DDOT":0.0},{"OBJECT_NAME":"ONEWEB-0025","OBJECT_ID":"2020-008H","EPOCH":"2026-05-14T07:03:55.281312","MEAN_MOTION":13.10370902,"ECCENTRICITY":0.0001557,"INCLINATION":87.8864,"RA_OF_ASC_NODE":42.989,"ARG_OF_PERICENTER":93.5226,"MEAN_ANOMALY":266.6079,"EPHEMERIS_TYPE":0,"CLASSIFICATION_TYPE":"U","NORAD_CAT_ID":45138,"ELEMENT_SET_NO":999,"REV_AT_EPOCH":30413,"BSTAR":-0.0004328,"MEAN_MOTION_DOT":-1.38e-06,"MEAN_MOTION_DDOT":0.0},{"OBJECT_NAME":"ONEWEB-0026","OBJECT_ID":"2020-008J","EPOCH":"2026-05-14T03:07:28.104960","MEAN_MOTION":13.11418278,"ECCENTRICITY":0.0001683,"INCLINATION":87.8926,"RA_OF_ASC_NODE":27.842,"ARG_OF_PERICENTER":79.0324,"MEAN_ANOMALY":281.0994,"EPHEMERIS_TYPE":0,"CLASSIFICATION_TYPE":"U","NORAD_CAT_ID":45139,"ELEMENT_SET_NO":999,"REV_AT_EPOCH":30664,"BSTAR":-0.00087845,"MEAN_MOTION_DOT":-2.99e-06,"MEAN_MOTION_DDOT":0.0},{"OBJECT_NAME":"ONEWEB-0028","OBJECT_ID":"2020-008K","EPOCH":"2026-05-13T15:17:20.304384","MEAN_MOTION":13.10721513,"ECCENTRICITY":0.0004579,"INCLINATION":87.8912,"RA_OF_ASC_NODE":27.9452,"ARG_OF_PERICENTER":89.8081,"MEAN_ANOMALY":270.3571,"EPHEMERIS_TYPE":0,"CLASSIFICATION_TYPE":"U","NORAD_CAT_ID":45140,"ELEMENT_SET_NO":999,"REV_AT_EPOCH":30409,"BSTAR":-0.045877,"MEAN_MOTION_DOT":-0.00016056,"MEAN_MOTION_DDOT":0.0},{"OBJECT_NAME":"ONEWEB-0032","OBJECT_ID":"2020-008L","EPOCH":"2026-05-14T06:02:10.291200","MEAN_MOTION":13.10375992,"ECCENTRICITY":0.0002337,"INCLINATION":87.8859,"RA_OF_ASC_NODE":43.0244,"ARG_OF_PERICENTER":84.1039,"MEAN_ANOMALY":276.0355,"EPHEMERIS_TYPE":0,"CLASSIFICATION_TYPE":"U","NORAD_CAT_ID":45141,"ELEMENT_SET_NO":999,"REV_AT_EPOCH":30385,"BSTAR":-0.00028986,"MEAN_MOTION_DOT":-8.9e-07,"MEAN_MOTION_DDOT":0.0}]