ONEWEB-0012             
1 44057U 19010A   26134.28253755  .00000099  00000+0  22568-3 0  9997
2 44057  87.9106 235.5168 0002386  97.8132 262.3270 13.16595800347107
ONEWEB-0010             
1 44058U 19010B   26134.30786545 -.00000018  00000+0 -80049-4 0  9991
2 44058  87.9102 235.5073 0001655  94.2502 265.8818 13.16595384347157
ONEWEB-0008             
1 44059U 19010C   26134.25720949  .00000003  00000+0 -24710-4 0  9998
2 44059  87.9100 235.5135 0001990 109.2281 250.9066 13.16593363347265
ONEWEB-0007             
1 44060U 19010D   26133.42872808  .00000127  00000+0  30444-3 0  9996
2 44060  87.8976 266.1501 0001933  89.5474 270.5878 13.15549872346808
ONEWEB-0006             
1 44061U 19010E   26134.26932115  .00000146  00000+0  35285-3 0  9997
2 44061  87.8987 265.9430 0001755  94.4919 265.6412 13.15550074346962
ONEWEB-0011             
1 44062U 19010F   26134.31369491 -.00000125  00000+0 -36673-3 0  9996
2 44062  87.8987 265.9430 0001701 101.7214 258.4107 13.15548502346968
ONEWEB-0013             
1 45131U 20008A   26134.24361722  .00000783  00000+0  22365-2 0  9994
2 45131  87.8527  59.6689 0002939  84.4211 275.7251 13.09452707301628
ONEWEB-0017             
1 45132U 20008B   26134.24970392 -.00000111  00000+0 -35380-3 0  9993
2 45132  87.8856  43.0234 0001687  73.0918 287.0395 13.10375954303508
ONEWEB-0020             
1 45133U 20008C   26134.21982017 -.00000192  00000+0 -58490-3 0  9994
2 45133  87.8861  43.0258 0001890  78.5649 281.5690 13.10369665303899
ONEWEB-0021             
1 45134U 20008D   26134.23475561 -.00000608  00000+0 -17785-2 0  9991
2 45134  87.8856  43.0408 0001949  76.7014 283.4331 13.10373301304203
ONEWEB-0023             
1 45136U 20008F   26134.24555115 -.00000372  00000+0 -11028-2 0  9990
2 45136  87.8862  43.0191 0001939  81.5379 278.5968 13.10375428303637
ONEWEB-0024             
1 45137U 20008G   26134.29466672 -.00000127  00000+0 -39986-3 0  9997
2 45137  87.8860  43.0003 0001879  78.5524 281.5815 13.10374307303808
ONEWEB-0025             
1 45138U 20008H   26134.29438983 -.00000138  00000+0 -43280-3 0  9996
2 45138  87.8864  42.9890 0001557  93.5226 266.6079 13.10370902304134
ONEWEB-0026             
1 45139U 20008J   26134.13018640 -.00000299  00000+0 -87845-3 0  9997
2 45139  87.8926  27.8420 0001683  79.0324 281.0994 13.11418278306648
ONEWEB-0028             
1 45140U 20008K   26133.63704056 -.00016056  00000+0 -45877-1 0  9991
2 45140  87.8912  27.9452 0004579  89.8081 270.3571 13.10721513304094
ONEWEB-0032             
1 45141U 20008L   26134.25150800 -.00000089  00000+0 -28986-3 0  9996
2 45141  87.8859  43.0244 0002337  84.1039 276.0355 13.10375992303856
